1 29155U 06018A   10019.34559083 -.00000074 +00000-0 +10000-3 0 09340
2 29155 000.4077 091.3772 0002750 163.0340 243.2315 01.00272227013425